{
  "40258": [
    {
      "epoch": "2025-12-11T14:23:10.035736+00:00",
      "mean_motion": 0.9912108500000001,
      "eccentricity": 0.0003861,
      "inclination": 1.409,
      "raan": 84.9292,
      "arg_perigee": 163.0308,
      "mean_anomaly": 232.4907,
      "bstar": 0.0,
      "tle_line1": "1 40258U 14058A   25345.59942171 -.00000115  00000-0  00000+0 0  9991",
      "tle_line2": "2 40258   1.4090  84.9292 0003861 163.0308 232.4907  0.99121085 39114",
      "norad_id": 40258,
      "object_name": "LUCH (OLYMP)"
    },
    {
      "epoch": "2025-12-12T02:21:43.442200+00:00",
      "mean_motion": 0.99121336,
      "eccentricity": 0.0003827,
      "inclination": 1.4103,
      "raan": 84.925,
      "arg_perigee": 163.334,
      "mean_anomaly": 50.2559,
      "bstar": 0.0,
      "tle_line1": "1 40258U 14058A   25346.09841947 -.00000127  00000-0  00000+0 0  9999",
      "tle_line2": "2 40258   1.4103  84.9250 0003827 163.3340  50.2559  0.99121336 39112",
      "norad_id": 40258,
      "object_name": "LUCH (OLYMP)"
    },
    {
      "epoch": "2025-12-19T17:24:07.667999+00:00",
      "mean_motion": 0.9912221,
      "eccentricity": 0.0003485,
      "inclination": 1.429,
      "raan": 84.8499,
      "arg_perigee": 167.02,
      "mean_anomaly": 248.1994,
      "bstar": 0.0,
      "tle_line1": "1 40258U 14058A   25353.72508875 -.00000263  00000-0  00000+0 0  9998",
      "tle_line2": "2 40258   1.4290  84.8499 0003485 167.0200 248.1994  0.99122210 39190",
      "norad_id": 40258,
      "object_name": "LUCH (OLYMP)"
    },
    {
      "epoch": "2025-12-19T22:31:58.653992+00:00",
      "mean_motion": 0.99122157,
      "eccentricity": 0.0003484,
      "inclination": 1.4295,
      "raan": 84.8472,
      "arg_perigee": 167.1151,
      "mean_anomaly": 324.3954,
      "bstar": 0.0,
      "tle_line1": "1 40258U 14058A   25353.93887331 -.00000265  00000-0  00000+0 0  9990",
      "tle_line2": "2 40258   1.4295  84.8472 0003484 167.1151 324.3954  0.99122157 39194",
      "norad_id": 40258,
      "object_name": "LUCH (OLYMP)"
    },
    {
      "epoch": "2025-12-20T10:30:31.749420+00:00",
      "mean_motion": 0.99122012,
      "eccentricity": 0.0003479,
      "inclination": 1.4307,
      "raan": 84.842,
      "arg_perigee": 167.6183,
      "mean_anomaly": 141.9616,
      "bstar": 0.0,
      "tle_line1": "1 40258U 14058A   25354.43786747 -.00000268  00000-0  00000+0 0  9998",
      "tle_line2": "2 40258   1.4307  84.8420 0003479 167.6183 141.9616  0.99122012 39193",
      "norad_id": 40258,
      "object_name": "LUCH (OLYMP)"
    },
    {
      "epoch": "2025-12-20T19:03:41.019257+00:00",
      "mean_motion": 0.99121889,
      "eccentricity": 0.0003482,
      "inclination": 1.4316,
      "raan": 84.8389,
      "arg_perigee": 167.6422,
      "mean_anomaly": 269.1057,
      "bstar": 0.0,
      "tle_line1": "1 40258U 14058A   25354.79422476 -.00000269  00000-0  00000+0 0  9994",
      "tle_line2": "2 40258   1.4316  84.8389 0003482 167.6422 269.1057  0.99121889 39202",
      "norad_id": 40258,
      "object_name": "LUCH (OLYMP)"
    },
    {
      "epoch": "2025-12-20T22:28:51.369019+00:00",
      "mean_motion": 0.99121837,
      "eccentricity": 0.0003483,
      "inclination": 1.4319,
      "raan": 84.8368,
      "arg_perigee": 167.7099,
      "mean_anomaly": 319.8837,
      "bstar": 0.0,
      "tle_line1": "1 40258U 14058A   25354.93670566 -.00000270  00000-0  00000+0 0  9997",
      "tle_line2": "2 40258   1.4319  84.8368 0003483 167.7099 319.8837  0.99121837 39206",
      "norad_id": 40258,
      "object_name": "LUCH (OLYMP)"
    },
    {
      "epoch": "2025-12-21T12:10:01.173798+00:00",
      "mean_motion": 0.9912162400000001,
      "eccentricity": 0.0003484,
      "inclination": 1.4333,
      "raan": 84.8306,
      "arg_perigee": 168.2775,
      "mean_anomaly": 162.8142,
      "bstar": 0.0,
      "tle_line1": "1 40258U 14058A   25355.50695803 -.00000270  00000-0  00000+0 0  9992",
      "tle_line2": "2 40258   1.4333  84.8306 0003484 168.2775 162.8142  0.99121624 39201",
      "norad_id": 40258,
      "object_name": "LUCH (OLYMP)"
    },
    {
      "epoch": "2025-12-21T17:17:54.191895+00:00",
      "mean_motion": 0.9912153499999999,
      "eccentricity": 0.0003489,
      "inclination": 1.4338,
      "raan": 84.8289,
      "arg_perigee": 168.3033,
      "mean_anomaly": 239.0864,
      "bstar": 0.0,
      "tle_line1": "1 40258U 14058A   25355.72076611 -.00000270  00000-0  00000+0 0  9996",
      "tle_line2": "2 40258   1.4338  84.8289 0003489 168.3033 239.0864  0.99121535 39219",
      "norad_id": 40258,
      "object_name": "LUCH (OLYMP)"
    },
    {
      "epoch": "2025-12-21T22:25:48.569946+00:00",
      "mean_motion": 0.99121435,
      "eccentricity": 0.0003495,
      "inclination": 1.4343,
      "raan": 84.8262,
      "arg_perigee": 168.3564,
      "mean_anomaly": 315.3378,
      "bstar": 0.0,
      "tle_line1": "1 40258U 14058A   25355.93458993 -.00000270  00000-0  00000+0 0  9996",
      "tle_line2": "2 40258   1.4343  84.8262 0003495 168.3564 315.3378  0.99121435 39219",
      "norad_id": 40258,
      "object_name": "LUCH (OLYMP)"
    },
    {
      "epoch": "2025-12-22T18:57:21.153900+00:00",
      "mean_motion": 0.99121035,
      "eccentricity": 0.0003511,
      "inclination": 1.4364,
      "raan": 84.8177,
      "arg_perigee": 169.0391,
      "mean_anomaly": 259.8498,
      "bstar": 0.0,
      "tle_line1": "1 40258U 14058A   25356.78982817 -.00000267  00000-0  00000+0 0  9993",
      "tle_line2": "2 40258   1.4364  84.8177 0003511 169.0391 259.8498  0.99121035 39224",
      "norad_id": 40258,
      "object_name": "LUCH (OLYMP)"
    },
    {
      "epoch": "2025-12-22T22:22:38.996246+00:00",
      "mean_motion": 0.99120953,
      "eccentricity": 0.0003517,
      "inclination": 1.4367,
      "raan": 84.8157,
      "arg_perigee": 169.0864,
      "mean_anomaly": 310.6787,
      "bstar": 0.0,
      "tle_line1": "1 40258U 14058A   25356.93239579 -.00000266  00000-0  00000+0 0  9999",
      "tle_line2": "2 40258   1.4367  84.8157 0003517 169.0864 310.6787  0.99120953 39221",
      "norad_id": 40258,
      "object_name": "LUCH (OLYMP)"
    },
    {
      "epoch": "2025-12-23T18:54:11.125732+00:00",
      "mean_motion": 0.99120491,
      "eccentricity": 0.0003539,
      "inclination": 1.4389,
      "raan": 84.8072,
      "arg_perigee": 169.80640000000002,
      "mean_anomaly": 255.1501,
      "bstar": 0.0,
      "tle_line1": "1 40258U 14058A   25357.78762877 -.00000258  00000-0  00000+0 0  9996",
      "tle_line2": "2 40258   1.4389  84.8072 0003539 169.8064 255.1501  0.99120491 39230",
      "norad_id": 40258,
      "object_name": "LUCH (OLYMP)"
    },
    {
      "epoch": "2025-12-24T00:02:04.289856+00:00",
      "mean_motion": 0.9912035199999999,
      "eccentricity": 0.0003551,
      "inclination": 1.4394,
      "raan": 84.8042,
      "arg_perigee": 169.9017,
      "mean_anomaly": 331.3536,
      "bstar": 0.0,
      "tle_line1": "1 40258U 14058A   25358.00143854 -.00000256  00000-0  00000+0 0  9998",
      "tle_line2": "2 40258   1.4394  84.8042 0003551 169.9017 331.3536  0.99120352 39237",
      "norad_id": 40258,
      "object_name": "LUCH (OLYMP)"
    },
    {
      "epoch": "2025-12-24T15:25:50.174133+00:00",
      "mean_motion": 0.9911996399999999,
      "eccentricity": 0.0003569,
      "inclination": 1.441,
      "raan": 84.7979,
      "arg_perigee": 170.5625,
      "mean_anomaly": 199.613,
      "bstar": 0.0,
      "tle_line1": "1 40258U 14058A   25358.64294183 -.00000247  00000-0  00000+0 0  9990",
      "tle_line2": "2 40258   1.4410  84.7979 0003569 170.5625 199.6130  0.99119964 39249",
      "norad_id": 40258,
      "object_name": "LUCH (OLYMP)"
    },
    {
      "epoch": "2025-12-24T22:16:18.367126+00:00",
      "mean_motion": 0.9911978400000001,
      "eccentricity": 0.0003585,
      "inclination": 1.4417,
      "raan": 84.7945,
      "arg_perigee": 170.6728,
      "mean_anomaly": 301.2223,
      "bstar": 0.0,
      "tle_line1": "1 40258U 14058A   25358.92799036 -.00000243  00000-0  00000+0 0  9994",
      "tle_line2": "2 40258   1.4417  84.7945 0003585 170.6728 301.2223  0.99119784 39246",
      "norad_id": 40258,
      "object_name": "LUCH (OLYMP)"
    },
    {
      "epoch": "2025-12-25T18:40:34.452179+00:00",
      "mean_motion": 0.99119228,
      "eccentricity": 0.0003617,
      "inclination": 1.4439,
      "raan": 84.7851,
      "arg_perigee": 171.4793,
      "mean_anomaly": 243.8034,
      "bstar": 0.0,
      "tle_line1": "1 40258U 14058A   25359.77817653 -.00000227  00000-0  00000+0 0  9996",
      "tle_line2": "2 40258   1.4439  84.7851 0003617 171.4793 243.8034  0.99119228 39258",
      "norad_id": 40258,
      "object_name": "LUCH (OLYMP)"
    },
    {
      "epoch": "2025-12-25T19:43:48.741882+00:00",
      "mean_motion": 0.9911920100000001,
      "eccentricity": 0.0003619,
      "inclination": 1.444,
      "raan": 84.78440000000002,
      "arg_perigee": 171.49760000000003,
      "mean_anomaly": 259.4565,
      "bstar": 0.0,
      "tle_line1": "1 40258U 14058A   25359.82209192 -.00000227  00000-0  00000+0 0  9995",
      "tle_line2": "2 40258   1.4440  84.7844 0003619 171.4976 259.4565  0.99119201 39250",
      "norad_id": 40258,
      "object_name": "LUCH (OLYMP)"
    },
    {
      "epoch": "2025-12-26T02:14:21.683319+00:00",
      "mean_motion": 0.99119003,
      "eccentricity": 0.0003637,
      "inclination": 1.4447,
      "raan": 84.78120000000001,
      "arg_perigee": 171.6693,
      "mean_anomaly": 356.0669,
      "bstar": 0.0,
      "tle_line1": "1 40258U 14058A   25360.09330652 -.00000221  00000-0  00000+0 0  9996",
      "tle_line2": "2 40258   1.4447  84.7812 0003637 171.6693 356.0669  0.99119003 39259",
      "norad_id": 40258,
      "object_name": "LUCH (OLYMP)"
    }
  ],
  "44878": []
}